{
  "type": "FeatureCollection",
  "features": [
    {
      "type": "Feature",
      "properties": {
        "norad_id": 31608,
        "name": "FENGYUN 1C DEB",
        "group": "fengyun-1c-debris",
        "lat": 5.7487156365923155,
        "lon": -59.62274609743465,
        "alt_km": 714.4191459142194,
        "timestamp": "2025-12-26T15:29:39.722560+00:00",
        "meta_object_name": "FENGYUN 1C DEB",
        "meta_object_id": "1999-025BZN",
        "meta_epoch": "2025-12-17T14:09:29.850912",
        "meta_mean_motion": 14.85908283,
        "meta_eccentricity": 0.01457059,
        "meta_inclination": 98.3797,
        "meta_ra_of_asc_node": 109.9897,
        "meta_arg_of_pericenter": 22.0076,
        "meta_mean_anomaly": 338.7309,
        "meta_ephemeris_type": 0,
        "meta_classification_type": "U",
        "meta_norad_cat_id": 31608,
        "meta_element_set_no": 999,
        "meta_rev_at_epoch": 98705,
        "meta_bstar": 0.00045964647,
        "meta_mean_motion_dot": 4.79e-05,
        "meta_mean_motion_ddot": 0,
        "tle_line1": "1 31608U 99025BZN 25351.58992883  .00004790  00000+0  45965-3 0  9992",
        "tle_line2": "2 31608  98.3797 109.9897 0145705  22.0076 338.7309 14.85908283987055"
      },
      "geometry": {
        "type": "Point",
        "coordinates": [
          -59.62274609743465,
          5.7487156365923155
        ]
      }
    },
    {
      "type": "Feature",
      "properties": {
        "norad_id": 31609,
        "name": "FENGYUN 1C DEB",
        "group": "fengyun-1c-debris",
        "lat": 74.42533424576965,
        "lon": -114.74420839299627,
        "alt_km": 900.5009570716484,
        "timestamp": "2025-12-26T15:29:39.722570+00:00",
        "meta_object_name": "FENGYUN 1C DEB",
        "meta_object_id": "1999-025BZP",
        "meta_epoch": "2025-12-22T21:42:13.279104",
        "meta_mean_motion": 14.15844126,
        "meta_eccentricity": 0.0094714,
        "meta_inclination": 99.2139,
        "meta_ra_of_asc_node": 25.7728,
        "meta_arg_of_pericenter": 291.5289,
        "meta_mean_anomaly": 191.9396,
        "meta_ephemeris_type": 0,
        "meta_classification_type": "U",
        "meta_norad_cat_id": 31609,
        "meta_element_set_no": 999,
        "meta_rev_at_epoch": 66228,
        "meta_bstar": 0.002391,
        "meta_mean_motion_dot": 4.866e-05,
        "meta_mean_motion_ddot": 0,
        "tle_line1": "1 31609U 99025BZP 25356.90432036  .00004866  00000+0  23910-2 0  9992",
        "tle_line2": "2 31609  99.2139  25.7728 0094714 291.5289 191.9396 14.15844126662284"
      },
      "geometry": {
        "type": "Point",
        "coordinates": [
          -114.74420839299627,
          74.42533424576965
        ]
      }
    },
    {
      "type": "Feature",
      "properties": {
        "norad_id": 31612,
        "name": "FENGYUN 1C DEB",
        "group": "fengyun-1c-debris",
        "lat": -44.184917654480095,
        "lon": 92.718474935225,
        "alt_km": 359.2596003086519,
        "timestamp": "2025-12-26T15:29:39.722581+00:00",
        "meta_object_name": "FENGYUN 1C DEB",
        "meta_object_id": "1999-025BZS",
        "meta_epoch": "2025-12-24T12:18:55.437696",
        "meta_mean_motion": 15.76867057,
        "meta_eccentricity": 0.00289133,
        "meta_inclination": 100.3352,
        "meta_ra_of_asc_node": 279.7575,
        "meta_arg_of_pericenter": 69.6448,
        "meta_mean_anomaly": 290.791,
        "meta_ephemeris_type": 0,
        "meta_classification_type": "U",
        "meta_norad_cat_id": 31612,
        "meta_element_set_no": 999,
        "meta_rev_at_epoch": 190,
        "meta_bstar": 0.0023631516,
        "meta_mean_motion_dot": 0.00407886,
        "meta_mean_motion_ddot": 0,
        "tle_line1": "1 31612U 99025BZS 25358.51314164  .00407886  00000+0  23632-2 0  9996",
        "tle_line2": "2 31612 100.3352 279.7575 0028913  69.6448 290.7910 15.76867057  1901"
      },
      "geometry": {
        "type": "Point",
        "coordinates": [
          92.718474935225,
          -44.184917654480095
        ]
      }
    },
    {
      "type": "Feature",
      "properties": {
        "norad_id": 31613,
        "name": "FENGYUN 1C DEB",
        "group": "fengyun-1c-debris",
        "lat": -8.497614316212664,
        "lon": -172.87289673556947,
        "alt_km": 964.5969858516592,
        "timestamp": "2025-12-26T15:29:39.722591+00:00",
        "meta_object_name": "FENGYUN 1C DEB",
        "meta_object_id": "1999-025BZT",
        "meta_epoch": "2025-12-23T06:31:23.498400",
        "meta_mean_motion": 13.63471347,
        "meta_eccentricity": 0.03426742,
        "meta_inclination": 98.424,
        "meta_ra_of_asc_node": 182.93,
        "meta_arg_of_pericenter": 78.1321,
        "meta_mean_anomaly": 285.8034,
        "meta_ephemeris_type": 0,
        "meta_classification_type": "U",
        "meta_norad_cat_id": 31613,
        "meta_element_set_no": 999,
        "meta_rev_at_epoch": 91905,
        "meta_bstar": 0.0011595288,
        "meta_mean_motion_dot": 1.328e-05,
        "meta_mean_motion_ddot": 0,
        "tle_line1": "1 31613U 99025BZT 25357.27179975  .00001328  00000+0  11595-2 0  9994",
        "tle_line2": "2 31613  98.4240 182.9300 0342674  78.1321 285.8034 13.63471347919057"
      },
      "geometry": {
        "type": "Point",
        "coordinates": [
          -172.87289673556947,
          -8.497614316212664
        ]
      }
    },
    {
      "type": "Feature",
      "properties": {
        "norad_id": 31614,
        "name": "FENGYUN 1C DEB",
        "group": "fengyun-1c-debris",
        "lat": -43.53582618928002,
        "lon": -82.85083716245036,
        "alt_km": 561.8972155948504,
        "timestamp": "2025-12-26T15:29:39.722602+00:00",
        "meta_object_name": "FENGYUN 1C DEB",
        "meta_object_id": "1999-025BZU",
        "meta_epoch": "2025-12-24T17:29:41.103744",
        "meta_mean_motion": 14.99477571,
        "meta_eccentricity": 0.00177456,
        "meta_inclination": 98.9741,
        "meta_ra_of_asc_node": 266.3069,
        "meta_arg_of_pericenter": 332.6849,
        "meta_mean_anomaly": 81.8375,
        "meta_ephemeris_type": 0,
        "meta_classification_type": "U",
        "meta_norad_cat_id": 31614,
        "meta_element_set_no": 999,
        "meta_rev_at_epoch": 96609,
        "meta_bstar": 0.0079882071,
        "meta_mean_motion_dot": 0.00099588,
        "meta_mean_motion_ddot": 0,
        "tle_line1": "1 31614U 99025BZU 25358.72894796  .00099588  00000+0  79882-2 0  9999",
        "tle_line2": "2 31614  98.9741 266.3069 0017745 332.6849  81.8375 14.99477571966092"
      },
      "geometry": {
        "type": "Point",
        "coordinates": [
          -82.85083716245036,
          -43.53582618928002
        ]
      }
    },
    {
      "type": "Feature",
      "properties": {
        "norad_id": 31615,
        "name": "FENGYUN 1C DEB",
        "group": "fengyun-1c-debris",
        "lat": -46.57957986313729,
        "lon": -136.8945871728791,
        "alt_km": 700.1386698246097,
        "timestamp": "2025-12-26T15:29:39.722612+00:00",
        "meta_object_name": "FENGYUN 1C DEB",
        "meta_object_id": "1999-025BZV",
        "meta_epoch": "2025-12-21T08:57:52.598016",
        "meta_mean_motion": 14.35490387,
        "meta_eccentricity": 0.01666424,
        "meta_inclination": 99.1375,
        "meta_ra_of_asc_node": 47.3142,
        "meta_arg_of_pericenter": 291.3447,
        "meta_mean_anomaly": 67.0022,
        "meta_ephemeris_type": 0,
        "meta_classification_type": "U",
        "meta_norad_cat_id": 31615,
        "meta_element_set_no": 999,
        "meta_rev_at_epoch": 65402,
        "meta_bstar": 0.002664341,
        "meta_mean_motion_dot": 8.927e-05,
        "meta_mean_motion_ddot": 0,
        "tle_line1": "1 31615U 99025BZV 25355.37352544  .00008927  00000+0  26643-2 0  9992",
        "tle_line2": "2 31615  99.1375  47.3142 0166642 291.3447  67.0022 14.35490387654026"
      },
      "geometry": {
        "type": "Point",
        "coordinates": [
          -136.8945871728791,
          -46.57957986313729
        ]
      }
    },
    {
      "type": "Feature",
      "properties": {
        "norad_id": 31618,
        "name": "FENGYUN 1C DEB",
        "group": "fengyun-1c-debris",
        "lat": -65.87298688982408,
        "lon": 166.35093579567868,
        "alt_km": 716.5399329478769,
        "timestamp": "2025-12-26T15:29:39.722622+00:00",
        "meta_object_name": "FENGYUN 1C DEB",
        "meta_object_id": "1999-025BZY",
        "meta_epoch": "2025-12-23T05:00:13.341600",
        "meta_mean_motion": 14.21035882,
        "meta_eccentricity": 0.0156931,
        "meta_inclination": 99.4438,
        "meta_ra_of_asc_node": 140.8629,
        "meta_arg_of_pericenter": 296.392,
        "meta_mean_anomaly": 62.1219,
        "meta_ephemeris_type": 0,
        "meta_classification_type": "U",
        "meta_norad_cat_id": 31618,
        "meta_element_set_no": 999,
        "meta_rev_at_epoch": 70413,
        "meta_bstar": 0.00031508967,
        "meta_mean_motion_dot": 7.22e-06,
        "meta_mean_motion_ddot": 0,
        "tle_line1": "1 31618U 99025BZY 25357.20848775  .00000722  00000+0  31509-3 0  9998",
        "tle_line2": "2 31618  99.4438 140.8629 0156931 296.3920  62.1219 14.21035882704134"
      },
      "geometry": {
        "type": "Point",
        "coordinates": [
          166.35093579567868,
          -65.87298688982408
        ]
      }
    }
  ]
}